     2              NAVIGATION DATA                         RINEX VERSION / TYPE
CCRINEXN V1.6.0 UX  CDDIS               03-OCT-18 15:18     PGM / RUN BY / DATE 
IGS BROADCAST EPHEMERIS FILE                                COMMENT             
    0.1024D-07  0.7451D-08 -0.5960D-07 -0.5960D-07          ION ALPHA           
    0.8806D+05  0.0000D+00 -0.1966D+06 -0.6554D+05          ION BETA            
    0.000000000000D+00-0.266453525910D-14   503808     2021 DELTA-UTC: A0,A1,T,W
    18                                                      LEAP SECONDS        
                                                            END OF HEADER       
26 18 10  3  3 59 44.0-0.210804864764D-05 0.114823706099D-10 0.000000000000D+00
    0.300000000000D+01 0.729375000000D+02 0.468555239053D-08 0.101734090488D+01
    0.394135713577D-05 0.297039502766D-02 0.795908272266D-05 0.515373349190D+04
    0.273584000000D+06 0.447034835815D-07-0.840563262251D+00-0.372529029846D-07
    0.954336522507D+00 0.218062500000D+03 0.502442783844D-01-0.823855739185D-08
   -0.135005617796D-09 0.100000000000D+01 0.202100000000D+04 0.000000000000D+00
    0.200000000000D+01 0.000000000000D+00 0.745058059692D-08 0.300000000000D+01
    0.268680000000D+06 0.000000000000D+00 0.000000000000D+00 0.000000000000D+00
29 18 10  3  3 59 44.0 0.364618841559D-03-0.761701812735D-11 0.000000000000D+00
    0.800000000000D+01-0.481250000000D+01 0.418124557200D-08-0.349982950492D+00
   -0.299885869026D-06 0.751143787056D-03 0.348128378391D-05 0.515362301064D+04
    0.273584000000D+06-0.577419996262D-07 0.289085813836D+00 0.391155481338D-07
    0.984893980216D+00 0.324687500000D+03 0.163879259088D+01-0.817319723012D-08
   -0.214294641060D-10 0.100000000000D+01 0.202100000000D+04 0.000000000000D+00
    0.200000000000D+01 0.000000000000D+00-0.102445483208D-07 0.800000000000D+01
    0.266430000000D+06 0.000000000000D+00 0.000000000000D+00 0.000000000000D+00
 1 18 10  3  4  0  0.0-0.955522991717D-04-0.477484718431D-11 0.000000000000D+00
    0.390000000000D+02-0.838125000000D+02 0.405802617594D-08-0.309763657350D+01
   -0.436231493950D-05 0.813245936297D-02 0.694394111633D-05 0.515366960144D+04
    0.273600000000D+06-0.167638063431D-07 0.127942933067D+01-0.689178705216D-07
    0.972459365259D+00 0.250968750000D+03 0.697586692943D+00-0.785675583685D-08
   -0.192865176466D-10 0.100000000000D+01 0.202100000000D+04 0.000000000000D+00
    0.200000000000D+01 0.000000000000D+00 0.558793544769D-08 0.390000000000D+02
    0.266400000000D+06 0.400000000000D+01 0.000000000000D+00 0.000000000000D+00
 2 18 10  3  4  0  0.0-0.190874561667D-04-0.109139364213D-10 0.000000000000D+00
    0.270000000000D+02-0.110218750000D+03 0.443768484739D-08-0.277971809407D+01
   -0.553019344807D-05 0.182023156667D-01 0.728294253349D-05 0.515357342339D+04
    0.273600000000D+06 0.214204192162D-06 0.121560842057D+01-0.409781932831D-07
    0.951571633670D+00 0.229937500000D+03-0.182645126312D+01-0.787068498848D-08
   -0.139291516337D-10 0.100000000000D+01 0.202100000000D+04 0.000000000000D+00
    0.200000000000D+01 0.000000000000D+00-0.204890966415D-07 0.270000000000D+02
    0.266418000000D+06 0.400000000000D+01 0.000000000000D+00 0.000000000000D+00
 5 18 10  3  4  0  0.0-0.134436413646D-05 0.341060513165D-12 0.000000000000D+00
    0.690000000000D+02-0.263125000000D+02 0.469876715108D-08-0.186083944789D+00
   -0.123307108879D-05 0.567050743848D-02 0.100564211607D-04 0.515379127502D+04
    0.273600000000D+06 0.391155481338D-07 0.229893813385D+01 0.106170773506D-06
    0.948531556775D+00 0.178312500000D+03 0.695036525370D+00-0.815248244076D-08
    0.415731602604D-09 0.100000000000D+01 0.202100000000D+04 0.000000000000D+00
    0.200000000000D+01 0.000000000000D+00-0.111758708954D-07 0.690000000000D+02
    0.266418000000D+06 0.400000000000D+01 0.000000000000D+00 0.000000000000D+00
 6 18 10  3  4  0  0.0 0.355229713023D-03-0.545696821064D-11 0.000000000000D+00
    0.104000000000D+03-0.859687500000D+02 0.419803200774D-08-0.280932736874D+01
   -0.448338687420D-05 0.981603981927D-03 0.747665762901D-05 0.515371212769D+04
    0.273600000000D+06 0.521540641785D-07 0.127111379709D+01-0.409781932831D-07
    0.972155697113D+00 0.244062500000D+03-0.114046684911D+01-0.794247369305D-08
   -0.110361739867D-09 0.100000000000D+01 0.202100000000D+04 0.000000000000D+00
    0.200000000000D+01 0.000000000000D+00 0.465661287308D-08 0.104000000000D+03
    0.266400000000D+06 0.400000000000D+01 0.000000000000D+00 0.000000000000D+00
 7 18 10  3  4  0  0.0 0.113544054329D-03-0.670752342558D-11 0.000000000000D+00
    0.920000000000D+02 0.220312500000D+02 0.466876590141D-08 0.254715092649D+01
    0.108778476715D-05 0.120973387966D-01 0.858120620251D-05 0.515364220428D+04
    0.273600000000D+06-0.117346644402D-06-0.185058402496D+01-0.152736902237D-06
    0.957217264216D+00 0.214781250000D+03-0.248843369284D+01-0.791997275580D-08
   -0.282868925483D-09 0.100000000000D+01 0.202100000000D+04 0.000000000000D+00
    0.280000000000D+01 0.000000000000D+00-0.111758708954D-07 0.920000000000D+02
    0.271140000000D+06 0.400000000000D+01 0.000000000000D+00 0.000000000000D+00
 8 18 10  3  4  0  0.0-0.117232557386D-03-0.136424205266D-11 0.000000000000D+00
    0.740000000000D+02 0.100000000000D+02 0.438661107438D-08-0.517145082746D+00
    0.528991222382D-06 0.359055702575D-02 0.395439565182D-05 0.515363463211D+04
    0.273600000000D+06 0.149011611938D-07 0.214064554225D+00-0.633299350738D-07
    0.969986103289D+00 0.310812500000D+03-0.413452587628D+00-0.824891532858D-08
    0.321441961590D-11 0.100000000000D+01 0.202100000000D+04 0.000000000000D+00
    0.200000000000D+01 0.000000000000D+00 0.512227416039D-08 0.740000000000D+02
    0.271740000000D+06 0.000000000000D+00 0.000000000000D+00 0.000000000000D+00
 9 18 10  3  4  0  0.0 0.502943992615D-03-0.238742359215D-11 0.000000000000D+00
    0.390000000000D+02 0.202500000000D+02 0.502092342733D-08-0.457977064057D+00
    0.843778252602D-06 0.107753032353D-02 0.716932117939D-05 0.515352911758D+04
    0.273600000000D+06 0.279396772385D-07-0.292780624837D+01-0.204890966415D-07
    0.952980946042D+00 0.240531250000D+03 0.172686209814D+01-0.827213028172D-08
    0.131076888450D-09 0.100000000000D+01 0.202100000000D+04 0.000000000000D+00
    0.200000000000D+01 0.000000000000D+00 0.931322574616D-09 0.390000000000D+02
    0.266400000000D+06 0.400000000000D+01 0.000000000000D+00 0.000000000000D+00
10 18 10  3  4  0  0.0 0.177741050720D-03-0.295585778076D-11 0.000000000000D+00
    0.250000000000D+02-0.361562500000D+02 0.440518332923D-08 0.121707572155D+01
   -0.185519456863D-05 0.382333772723D-02 0.992976129055D-05 0.515366557121D+04
    0.273600000000D+06 0.372529029846D-08 0.231914004506D+01 0.633299350738D-07
    0.961727813698D+00 0.188968750000D+03-0.281097198271D+01-0.790711496279D-08
    0.295726609867D-09 0.100000000000D+01 0.202100000000D+04 0.000000000000D+00
    0.200000000000D+01 0.000000000000D+00 0.186264514923D-08 0.250000000000D+02
    0.266430000000D+06 0.000000000000D+00 0.000000000000D+00 0.000000000000D+00
11 18 10  3  4  0  0.0-0.713202171028D-03 0.318323145621D-11 0.000000000000D+00
    0.980000000000D+02-0.630625000000D+02 0.562559147132D-08 0.253823452711D+01
   -0.314041972160D-05 0.169672805350D-01 0.350549817085D-05 0.515366405106D+04
    0.273600000000D+06 0.214204192162D-06 0.843919980449D+00-0.186264514923D-08
    0.906761323529D+00 0.280031250000D+03 0.182356897510D+01-0.853999858236D-08
   -0.167149819604D-09 0.100000000000D+01 0.202100000000D+04 0.000000000000D+00
    0.200000000000D+01 0.000000000000D+00-0.121071934700D-07 0.980000000000D+02
    0.266400000000D+06 0.400000000000D+01 0.000000000000D+00 0.000000000000D+00
12 18 10  3  4  0  0.0 0.302586238831D-03-0.272848410532D-11 0.000000000000D+00
    0.780000000000D+02 0.908750000000D+02 0.391873465960D-08 0.195069829999D+01
    0.446848571300D-05 0.701209076215D-02 0.787898898125D-05 0.515377013779D+04
    0.273600000000D+06-0.949949026108D-07-0.754939767186D+00-0.158324837685D-06
    0.985380912499D+00 0.238968750000D+03 0.102500209275D+01-0.781675417062D-08
    0.571452374714D-11 0.100000000000D+01 0.202100000000D+04 0.000000000000D+00
    0.200000000000D+01 0.000000000000D+00-0.125728547573D-07 0.780000000000D+02
    0.266418000000D+06 0.400000000000D+01 0.000000000000D+00 0.000000000000D+00
13 18 10  3  4  0  0.0-0.879163853824D-04 0.795807864051D-12 0.000000000000D+00
    0.780000000000D+02 0.137812500000D+02 0.464697927962D-08-0.209384571180D+01
    0.717118382454D-06 0.343666831031D-02 0.716932117939D-05 0.515365933418D+04
    0.273600000000D+06 0.651925802231D-07-0.279419914124D+01 0.167638063431D-07
    0.968572381682D+00 0.242843750000D+03 0.145054455870D+01-0.795890294883D-08
    0.389301930274D-10 0.100000000000D+01 0.202100000000D+04 0.000000000000D+00
    0.200000000000D+01 0.000000000000D+00-0.111758708954D-07 0.780000000000D+02
    0.266418000000D+06 0.400000000000D+01 0.000000000000D+00 0.000000000000D+00
14 18 10  3  4  0  0.0-0.969707034528D-04 0.227373675443D-12 0.000000000000D+00
    0.810000000000D+02 0.204375000000D+02 0.485591655774D-08-0.117143901630D+01
    0.133179128170D-05 0.100440655369D-01 0.713020563126D-05 0.515362672615D+04
    0.273600000000D+06 0.372529029846D-07-0.283696598451D+01 0.234693288803D-06
    0.961144494132D+00 0.242875000000D+03-0.194251609238D+01-0.816998291242D-08
    0.124648055766D-09 0.100000000000D+01 0.202100000000D+04 0.000000000000D+00
    0.200000000000D+01 0.000000000000D+00-0.977888703346D-08 0.810000000000D+02
    0.266430000000D+06 0.000000000000D+00 0.000000000000D+00 0.000000000000D+00
